KAZSTSAT                
1 43783U 18099AB  26060.07805090  .00000864  00000+0  74690-4 0  9992
2 43783  97.4423  96.8497 0007626  38.7776 321.3994 14.99597919395100
SAUDISAT 5A             
1 43831U 18102A   26060.53201358  .00007908  00000+0  30241-3 0  9998
2 43831  97.3213 124.2081 0010812 148.2994 211.8898 15.26803399399243
SAUDISAT 5B             
1 43833U 18102C   26060.50545686  .00007060  00000+0  26771-3 0  9994
2 43833  97.3309 127.0596 0011494 151.0172 209.1708 15.27116616399352
GAOFEN-10R              
1 44622U 19066A   26060.53517661  .00001861  00000+0  23500-3 0  9996
2 44622  98.0384  13.4147 0007785 128.5700 231.6212 14.83118642346426
CARTOSAT-3              
1 44804U 19081A   26060.46991447  .00004905  00000+0  23506-3 0  9993
2 44804  97.4450 123.9980 0013268 165.4937 194.6681 15.19305607347116
GAOFEN-12 01            
1 44819U 19082A   26060.54391103  .00000618  00000+0  87717-4 0  9994
2 44819  97.8141  69.7566 0002106  66.1555 293.9878 14.80353361338165
CSG-1                   
1 44873U 19092A   26060.50706535  .00000732  00000+0  98434-4 0  9995
2 44873  97.8864 245.6633 0001320  87.4072 272.7292 14.82159743335526
NEMO-HD                 
1 46277U 20061F   26060.51029615  .00013026  00000+0  30454-3 0  9998
2 46277  97.2068 123.6533 0002620  88.3925 271.7623 15.42280145305376
SENTINEL-6A             
1 46984U 20086A   26060.26264711 -.00000062  00000+0 -23577-5 0  9998
2 46984  66.0443 359.2134 0007814 270.7911  89.2209 12.80929536246502
GAOFEN-12 02            
1 48079U 21026A   26060.54352310  .00000623  00000+0  88929-4 0  9996
2 48079  97.9911  59.1829 0003945 208.7208 151.3787 14.80191462265830
PLEIADES NEO 3          
1 48268U 21034A   26060.53886405 -.00000362  00000+0 -39355-4 0  9992
2 48268  97.8936 136.8511 0001305  88.3727 271.7635 14.81671775261716
PLEIADES NEO 4          
1 49070U 21073E   26060.50508638 -.00000185  00000+0 -16957-4 0  9999
2 49070  97.8938 136.8134 0001379  92.5594 267.5777 14.81673272245425
LANDSAT 9               
1 49260U 21088A   26060.17989404  .00000448  00000+0  10946-3 0  9994
2 49260  98.1956 132.1028 0001204  89.5766 270.5570 14.57115559235274
CSG-2                   
1 51444U 22008A   26060.54080531  .00000640  00000+0  86906-4 0  9992
2 51444  97.8856 245.6939 0001402  80.9730 279.1641 14.82149111220641
GAOFEN-12 03            
1 52912U 22069A   26060.55080951  .00000541  00000+0  78583-4 0  9999
2 52912  97.8428 311.0646 0002112 101.0958 259.0491 14.79827727198697
SWOT                    
1 54754U 22173A   26060.44961920  .00000069  00000+0  48479-4 0  9999
2 54754  77.6116 180.7415 0000470 280.9189  79.1910 14.00168256164077
GAOFEN-12 04            
1 57654U 23123A   26060.51261437  .00001541  00000+0  21068-3 0  9991
2 57654  97.9131 340.0954 0001721  79.2611 280.8795 14.79974736136704
PARS 1                  
1 59065U 24039Q   26060.51055449  .00014580  00000+0  33009-3 0  9995
2 59065  97.4734  38.2931 0011411 134.8644 225.3532 15.43162996112029
RESURS-P 4              
1 59371U 24061A   26060.52059650  .00004968  00000+0  15905-3 0  9993
2 59371  97.2642  10.3249 0002831  68.4497 291.7047 15.32839780107271
LEGION 1                
1 59625U 24081A   26060.42659933  .00006171  00000+0  31190-3 0  9998
2 59625  97.5092 139.3960 0005728  45.8081 314.3622 15.17411972101203
LEGION 2                
1 59626U 24081B   26060.46034054  .00004906  00000+0  25521-3 0  9999
2 59626  97.5092 139.5181 0010983  14.1420 346.0118 15.16465810101218
ALOS-4 (DAICHI-4)       
1 60182U 24123A   26060.48702149  .00000099  00000+0  20162-4 0  9990
2 60182  97.9199 159.2056 0001422 100.4469 259.6903 14.79470212 89956
LEGION 3                
1 60452U 24146A   26060.50699579  .00006268  00000+0  33317-3 0  9999
2 60452  44.9992 247.8028 0013796 276.7944  83.1364 15.16034261 85683
LEGION 4                
1 60453U 24146B   26060.24188792  .00006956  00000+0  36807-3 0  9992
2 60453  45.0040 341.0740 0009842  50.8872 309.2881 15.16088103 84494
SENTINEL-2C             
1 60989U 24157A   26060.20053013  .00000159  00000+0  77308-4 0  9992
2 60989  98.5634 136.5348 0000799  95.7463 264.3811 14.30821631 77545
IONOSFERA-M 1           
1 61735U 24199A   26060.52403783  .00000065  00000+0  48801-4 0  9998
2 61735  98.7340 294.7393 0002104  88.0071 272.1347 14.22733386112394
IONOSFERA-M 2           
1 61736U 24199B   26060.48822493  .00000064  00000+0  48275-4 0  9991
2 61736  98.7339 294.6154 0000288  50.5180 309.6023 14.22735690115517
BIOMASS                 
1 63772U 25090A   26060.43908546  .00000372  00000+0  74145-4 0  9990
2 63772  98.0737 249.3060 0001456  91.9827 268.1544 14.67535747 44880
GOSAT-GW (IBUKI GW)     
1 64694U 25141A   26060.53175178  .00002344  00000+0  42152-3 0  9992
2 64694  98.0499 359.6454 0001467  84.1318 276.0054 14.67556614 36052
IONOSFERA-M 3           
1 64876U 25155A   26060.47989243  .00000079  00000+0  55495-4 0  9996
2 64876  98.5907  25.1678 0001806 131.4234 228.7099 14.21464070 31104
IONOSFERA-M 4           
1 64877U 25155B   26060.51488236  .00000079  00000+0  55893-4 0  9990
2 64877  98.5904  25.1204 0001501 110.8779 249.2559 14.21465755 31104
