OBJECT_NAME,OBJECT_ID,EPOCH,MEAN_MOTION,ECCENTRICITY,INCLINATION,RA_OF_ASC_NODE,ARG_OF_PERICENTER,MEAN_ANOMALY,EPHEMERIS_TYPE,CLASSIFICATION_TYPE,NORAD_CAT_ID,ELEMENT_SET_NO,REV_AT_EPOCH,BSTAR,MEAN_MOTION_DOT,MEAN_MOTION_DDOT
KAZSTSAT,2018-099AB,2026-03-01T01:52:23.597760,14.99597919,.00076262,97.4423,96.8497,38.7776,321.3994,0,U,43783,999,39510,.74690196E-4,.864E-5,0
SAUDISAT 5A,2018-102A,2026-03-01T12:46:05.973312,15.26803399,.0010812,97.3213,124.2081,148.2994,211.8898,0,U,43831,999,39924,.30241E-3,.7908E-4,0
SAUDISAT 5B,2018-102C,2026-03-01T12:07:51.472704,15.27116616,.0011494,97.3309,127.0596,151.0172,209.1708,0,U,43833,999,39935,.26771E-3,.706E-4,0
GAOFEN-10R,2019-066A,2026-03-01T12:50:39.259104,14.83118642,.0007785,98.0384,13.4147,128.5700,231.6212,0,U,44622,999,34642,.235E-3,.1861E-4,0
CARTOSAT-3,2019-081A,2026-03-01T11:16:40.610208,15.19305607,.0013268,97.4450,123.9980,165.4937,194.6681,0,U,44804,999,34711,.23506E-3,.4905E-4,0
GAOFEN-12 01,2019-082A,2026-03-01T13:03:13.912992,14.80353361,.0002106,97.8141,69.7566,66.1555,293.9878,0,U,44819,999,33816,.87717E-4,.618E-5,0
CSG-1,2019-092A,2026-03-01T12:10:10.446240,14.82159743,.000132,97.8864,245.6633,87.4072,272.7292,0,U,44873,999,33552,.98434E-4,.732E-5,0
NEMO-HD,2020-061F,2026-03-01T12:14:49.587360,15.42280145,.000262,97.2068,123.6533,88.3925,271.7623,0,U,46277,999,30537,.30454E-3,.13026E-3,0
SENTINEL-6A,2020-086A,2026-03-01T06:18:12.710304,12.80929536,.0007814,66.0443,359.2134,270.7911,89.2209,0,U,46984,999,24650,-.23577E-5,-.62E-6,0
GAOFEN-12 02,2021-026A,2026-03-01T13:02:40.395840,14.80191462,.0003945,97.9911,59.1829,208.7208,151.3787,0,U,48079,999,26583,.88929E-4,.623E-5,0
PLEIADES NEO 3,2021-034A,2026-03-01T12:55:57.853920,14.81671775,.0001305,97.8936,136.8511,88.3727,271.7635,0,U,48268,999,26171,-.39355E-4,-.362E-5,0
PLEIADES NEO 4,2021-073E,2026-03-01T12:07:19.463232,14.81673272,.0001379,97.8938,136.8134,92.5594,267.5777,0,U,49070,999,24542,-.16957E-4,-.185E-5,0
LANDSAT 9,2021-088A,2026-03-01T04:19:02.845056,14.57115559,.00012043,98.1956,132.1028,89.5766,270.5570,0,U,49260,999,23527,.10946458E-3,.448E-5,0
CSG-2,2022-008A,2026-03-01T12:58:45.578784,14.82149111,.0001402,97.8856,245.6939,80.9730,279.1641,0,U,51444,999,22064,.86906E-4,.64E-5,0
GAOFEN-12 03,2022-069A,2026-03-01T13:13:09.941664,14.79827727,.0002112,97.8428,311.0646,101.0958,259.0491,0,U,52912,999,19869,.78583E-4,.541E-5,0
SWOT,2022-173A,2026-03-01T10:47:27.098880,14.00168256,.000047,77.6116,180.7415,280.9189,79.1910,0,U,54754,999,16407,.48479E-4,.69E-6,0
GAOFEN-12 04,2023-123A,2026-03-01T12:18:09.881568,14.79974736,.0001721,97.9131,340.0954,79.2611,280.8795,0,U,57654,999,13670,.21068E-3,.1541E-4,0
PARS 1,2024-039Q,2026-03-01T12:15:11.907936,15.43162996,.0011411,97.4734,38.2931,134.8644,225.3532,0,U,59065,999,11202,.33009E-3,.1458E-3,0
RESURS-P 4,2024-061A,2026-03-01T12:29:39.537600,15.32839780,.0002831,97.2642,10.3249,68.4497,291.7047,0,U,59371,999,10727,.15905E-3,.4968E-4,0
LEGION 1,2024-081A,2026-03-01T10:14:18.182112,15.17411972,.0005728,97.5092,139.3960,45.8081,314.3622,0,U,59625,999,10120,.3119E-3,.6171E-4,0
LEGION 2,2024-081B,2026-03-01T11:02:53.422656,15.16465810,.0010983,97.5092,139.5181,14.1420,346.0118,0,U,59626,999,10121,.25521E-3,.4906E-4,0
ALOS-4 (DAICHI-4),2024-123A,2026-03-01T11:41:18.656736,14.79470212,.0001422,97.9199,159.2056,100.4469,259.6903,0,U,60182,999,8995,.20162E-4,.99E-6,0
LEGION 3,2024-146A,2026-03-01T12:10:04.436256,15.16034261,.0013796,44.9992,247.8028,276.7944,83.1364,0,U,60452,999,8568,.33317E-3,.6268E-4,0
LEGION 4,2024-146B,2026-03-01T05:48:19.116288,15.16088103,.0009842,45.0040,341.0740,50.8872,309.2881,0,U,60453,999,8449,.36807E-3,.6956E-4,0
SENTINEL-2C,2024-157A,2026-03-01T04:48:45.803232,14.30821631,.0000799,98.5634,136.5348,95.7463,264.3811,0,U,60989,999,7754,.77308E-4,.159E-5,0
IONOSFERA-M 1,2024-199A,2026-03-01T12:34:36.868512,14.22733386,.0002104,98.7340,294.7393,88.0071,272.1347,0,U,61735,999,11239,.48801E-4,.65E-6,0
IONOSFERA-M 2,2024-199B,2026-03-01T11:43:02.633952,14.22735690,.0000288,98.7339,294.6154,50.5180,309.6023,0,U,61736,999,11551,.48275E-4,.64E-6,0
BIOMASS,2025-090A,2026-03-01T10:32:16.983744,14.67535747,.0001456,98.0737,249.3060,91.9827,268.1544,0,U,63772,999,4488,.74145E-4,.372E-5,0
GOSAT-GW (IBUKI GW),2025-141A,2026-03-01T12:45:43.353792,14.67556614,.0001467,98.0499,359.6454,84.1318,276.0054,0,U,64694,999,3605,.42152E-3,.2344E-4,0
IONOSFERA-M 3,2025-155A,2026-03-01T11:31:02.705952,14.21464070,.0001806,98.5907,25.1678,131.4234,228.7099,0,U,64876,999,3110,.55495E-4,.79E-6,0
IONOSFERA-M 4,2025-155B,2026-03-01T12:21:25.835904,14.21465755,.0001501,98.5904,25.1204,110.8779,249.2559,0,U,64877,999,3110,.55893E-4,.79E-6,0
